{
  "type": "FeatureCollection",
  "features": [
    {
      "type": "Feature",
      "properties": {
        "norad_id": 2807,
        "name": "OPS 7218 (TRANSIT 16)",
        "group": "nnss",
        "lat": -70.41387267006785,
        "lon": 175.00003131538358,
        "alt_km": 1087.6853091366747,
        "timestamp": "2025-12-10T18:57:00.333939+00:00",
        "meta_object_name": "OPS 7218 (TRANSIT 16)",
        "meta_object_id": "1967-048A",
        "meta_epoch": "2025-12-10T11:12:53.544096",
        "meta_mean_motion": 13.50721568,
        "meta_eccentricity": 0.0021861,
        "meta_inclination": 89.6732,
        "meta_ra_of_asc_node": 354.0916,
        "meta_arg_of_pericenter": 120.1596,
        "meta_mean_anomaly": 3.7393,
        "meta_ephemeris_type": 0,
        "meta_classification_type": "U",
        "meta_norad_cat_id": 2807,
        "meta_element_set_no": 999,
        "meta_rev_at_epoch": 88245,
        "meta_bstar": 0.00020523,
        "meta_mean_motion_dot": 1.43e-06,
        "meta_mean_motion_ddot": 0,
        "tle_line1": "1 02807U 67048A   25344.46728639  .00000143  00000+0  20523-3 0  9997",
        "tle_line2": "2 02807  89.6732 354.0916 0021861 120.1596   3.7393 13.50721568882454"
      },
      "geometry": {
        "type": "Point",
        "coordinates": [
          175.00003131538358,
          -70.41387267006785
        ]
      }
    },
    {
      "type": "Feature",
      "properties": {
        "norad_id": 2965,
        "name": "OPS 4947 (TRANSIT 17)",
        "group": "nnss",
        "lat": -64.08807236027509,
        "lon": 23.039108807484403,
        "alt_km": 1047.4055872207891,
        "timestamp": "2025-12-10T18:57:00.333961+00:00",
        "meta_object_name": "OPS 4947 (TRANSIT 17)",
        "meta_object_id": "1967-092A",
        "meta_epoch": "2025-12-10T12:45:19.205856",
        "meta_mean_motion": 13.53452631,
        "meta_eccentricity": 0.004606,
        "meta_inclination": 89.2498,
        "meta_ra_of_asc_node": 24.6041,
        "meta_arg_of_pericenter": 241.1249,
        "meta_mean_anomaly": 237.5005,
        "meta_ephemeris_type": 0,
        "meta_classification_type": "U",
        "meta_norad_cat_id": 2965,
        "meta_element_set_no": 999,
        "meta_rev_at_epoch": 87067,
        "meta_bstar": 0.00023318,
        "meta_mean_motion_dot": 1.69e-06,
        "meta_mean_motion_ddot": 0,
        "tle_line1": "1 02965U 67092A   25344.53147229  .00000169  00000+0  23318-3 0  9992",
        "tle_line2": "2 02965  89.2498  24.6041 0046060 241.1249 237.5005 13.53452631870673"
      },
      "geometry": {
        "type": "Point",
        "coordinates": [
          23.039108807484403,
          -64.08807236027509
        ]
      }
    },
    {
      "type": "Feature",
      "properties": {
        "norad_id": 3133,
        "name": "OPS 7034 (TRANSIT 18)",
        "group": "nnss",
        "lat": 82.86273493196664,
        "lon": 93.85458021942998,
        "alt_km": 1047.037602122684,
        "timestamp": "2025-12-10T18:57:00.333975+00:00",
        "meta_object_name": "OPS 7034 (TRANSIT 18)",
        "meta_object_id": "1968-012A",
        "meta_epoch": "2025-12-10T08:23:25.317312",
        "meta_mean_motion": 13.51564825,
        "meta_eccentricity": 0.0073618,
        "meta_inclination": 90.0277,
        "meta_ra_of_asc_node": 273.632,
        "meta_arg_of_pericenter": 176.0655,
        "meta_mean_anomaly": 302.3339,
        "meta_ephemeris_type": 0,
        "meta_classification_type": "U",
        "meta_norad_cat_id": 3133,
        "meta_element_set_no": 999,
        "meta_rev_at_epoch": 56886,
        "meta_bstar": 0.00025852,
        "meta_mean_motion_dot": 1.81e-06,
        "meta_mean_motion_ddot": 0,
        "tle_line1": "1 03133U 68012A   25344.34959858  .00000181  00000+0  25852-3 0  9990",
        "tle_line2": "2 03133  90.0277 273.6320 0073618 176.0655 302.3339 13.51564825568861"
      },
      "geometry": {
        "type": "Point",
        "coordinates": [
          93.85458021942998,
          82.86273493196664
        ]
      }
    },
    {
      "type": "Feature",
      "properties": {
        "norad_id": 4507,
        "name": "NNSS 19 (TRANSIT 19)",
        "group": "nnss",
        "lat": 72.57271449722636,
        "lon": -125.48544860895821,
        "alt_km": 1146.9196176205332,
        "timestamp": "2025-12-10T18:57:00.333987+00:00",
        "meta_object_name": "NNSS 19 (TRANSIT 19)",
        "meta_object_id": "1970-067A",
        "meta_epoch": "2025-12-10T06:09:04.713984",
        "meta_mean_motion": 13.51314209,
        "meta_eccentricity": 0.0170695,
        "meta_inclination": 90.0056,
        "meta_ra_of_asc_node": 234.5321,
        "meta_arg_of_pericenter": 300.6377,
        "meta_mean_anomaly": 57.8039,
        "meta_ephemeris_type": 0,
        "meta_classification_type": "U",
        "meta_norad_cat_id": 4507,
        "meta_element_set_no": 999,
        "meta_rev_at_epoch": 72188,
        "meta_bstar": 0.00026981,
        "meta_mean_motion_dot": 1.99e-06,
        "meta_mean_motion_ddot": 0,
        "tle_line1": "1 04507U 70067A   25344.25630456  .00000199  00000+0  26981-3 0  9992",
        "tle_line2": "2 04507  90.0056 234.5321 0170695 300.6377  57.8039 13.51314209721889"
      },
      "geometry": {
        "type": "Point",
        "coordinates": [
          -125.48544860895821,
          72.57271449722636
        ]
      }
    },
    {
      "type": "Feature",
      "properties": {
        "norad_id": 6909,
        "name": "NNSS 20 (TRANSIT 20)",
        "group": "nnss",
        "lat": 0.887032887834807,
        "lon": -104.91445454550312,
        "alt_km": 981.5792669460388,
        "timestamp": "2025-12-10T18:57:00.333998+00:00",
        "meta_object_name": "NNSS 20 (TRANSIT 20)",
        "meta_object_id": "1973-081A",
        "meta_epoch": "2025-12-10T06:41:18.269088",
        "meta_mean_motion": 13.71432468,
        "meta_eccentricity": 0.0156615,
        "meta_inclination": 89.8563,
        "meta_ra_of_asc_node": 255.091,
        "meta_arg_of_pericenter": 85.6012,
        "meta_mean_anomaly": 276.3026,
        "meta_ephemeris_type": 0,
        "meta_classification_type": "U",
        "meta_norad_cat_id": 6909,
        "meta_element_set_no": 999,
        "meta_rev_at_epoch": 80327,
        "meta_bstar": 0.00033624,
        "meta_mean_motion_dot": 3.42e-06,
        "meta_mean_motion_ddot": 0,
        "tle_line1": "1 06909U 73081A   25344.27868367  .00000342  00000+0  33624-3 0  9997",
        "tle_line2": "2 06909  89.8563 255.0910 0156615  85.6012 276.3026 13.71432468803278"
      },
      "geometry": {
        "type": "Point",
        "coordinates": [
          -104.91445454550312,
          0.887032887834807
        ]
      }
    },
    {
      "type": "Feature",
      "properties": {
        "norad_id": 10457,
        "name": "TRANSAT",
        "group": "nnss",
        "lat": 87.47286126433295,
        "lon": -109.3379786956496,
        "alt_km": 1072.7674595379222,
        "timestamp": "2025-12-10T18:57:00.334009+00:00",
        "meta_object_name": "TRANSAT",
        "meta_object_id": "1977-106A",
        "meta_epoch": "2025-12-10T08:08:02.573088",
        "meta_mean_motion": 13.48943113,
        "meta_eccentricity": 0.0025164,
        "meta_inclination": 89.6481,
        "meta_ra_of_asc_node": 78.682,
        "meta_arg_of_pericenter": 196.5115,
        "meta_mean_anomaly": 229.0335,
        "meta_ephemeris_type": 0,
        "meta_classification_type": "U",
        "meta_norad_cat_id": 10457,
        "meta_element_set_no": 999,
        "meta_rev_at_epoch": 36711,
        "meta_bstar": 0.00020017,
        "meta_mean_motion_dot": 1.36e-06,
        "meta_mean_motion_ddot": 0,
        "tle_line1": "1 10457U 77106A   25344.33891867  .00000136  00000+0  20017-3 0  9993",
        "tle_line2": "2 10457  89.6481  78.6820 0025164 196.5115 229.0335 13.48943113367111"
      },
      "geometry": {
        "type": "Point",
        "coordinates": [
          -109.3379786956496,
          87.47286126433295
        ]
      }
    },
    {
      "type": "Feature",
      "properties": {
        "norad_id": 12458,
        "name": "NOVA 1",
        "group": "nnss",
        "lat": 5.473294557505856,
        "lon": -88.6014660267989,
        "alt_km": 1169.4702359827697,
        "timestamp": "2025-12-10T18:57:00.334020+00:00",
        "meta_object_name": "NOVA 1",
        "meta_object_id": "1981-044A",
        "meta_epoch": "2025-12-10T07:15:46.976256",
        "meta_mean_motion": 13.23278143,
        "meta_eccentricity": 0.0015859,
        "meta_inclination": 89.8524,
        "meta_ra_of_asc_node": 91.4196,
        "meta_arg_of_pericenter": 109.9742,
        "meta_mean_anomaly": 265.8367,
        "meta_ephemeris_type": 0,
        "meta_classification_type": "U",
        "meta_norad_cat_id": 12458,
        "meta_element_set_no": 999,
        "meta_rev_at_epoch": 15154,
        "meta_bstar": 0.00018395,
        "meta_mean_motion_dot": 8.7e-07,
        "meta_mean_motion_ddot": 0,
        "tle_line1": "1 12458U 81044A   25344.30262704  .00000087  00000+0  18395-3 0  9992",
        "tle_line2": "2 12458  89.8524  91.4196 0015859 109.9742 265.8367 13.23278143151545"
      },
      "geometry": {
        "type": "Point",
        "coordinates": [
          -88.6014660267989,
          5.473294557505856
        ]
      }
    }
  ]
}